NORAD_CAT_ID,OBJECT_NAME,OBJECT_TYPE,EPOCH,MEAN_MOTION,ECCENTRICITY,INCLINATION,RA_OF_ASC_NODE,ARG_OF_PERICENTER,MEAN_ANOMALY,BSTAR,MEAN_MOTION_DOT,MEAN_MOTION_DDOT,TLE_LINE0,TLE_LINE1,TLE_LINE2,SEMIMAJOR_AXIS,PERIOD,APOGEE,PERIGEE,DECAYED
53991.0,STARLINK-5118,PAYLOAD,2024-07-27 18:14:15,15.08848329,0.0001317,53.2183,332.3523,93.2067,266.9076,-1.8898e-05,-5.89e-06,0.0,0 STARLINK-5118,1 53991U 22125AD  24209.75990330 -.00000589  00000-0 -18898-4 0  9994,2 53991  53.2183 332.3523 0001317  93.2067 266.9076 15.08848329100534,6917.855,95.437,540.631,538.809,0.0
53991.0,STARLINK-5118,PAYLOAD,2024-07-28 11:43:30,15.0884504,0.0001356,53.2185,329.0811,92.9402,267.1746,-5.1219e-05,-1.103e-05,0.0,0 STARLINK-5118,1 53991U 22125AD  24210.48854324 -.00001103  00000-0 -51219-4 0  9995,2 53991  53.2185 329.0811 0001356  92.9402 267.1746 15.08845040100726,6917.865,95.437,540.668,538.792,0.0
53991.0,STARLINK-5118,PAYLOAD,2024-07-28 16:29:38,15.08855349,0.0001273,53.2183,328.1909,87.7648,272.349,2.9371e-06,-2.41e-06,0.0,0 STARLINK-5118,1 53991U 22125AD  24210.68725376 -.00000241  00000-0  29371-5 0  9997,2 53991  53.2183 328.1909 0001273  87.7648 272.3490 15.08855349100754,6917.833,95.437,540.579,538.818,0.0
53991.0,STARLINK-5118,PAYLOAD,2024-07-29 14:45:03,15.08834373,0.0001435,53.2184,324.029,92.8318,267.2838,5.8431e-05,6.42e-06,0.0,0 STARLINK-5118,1 53991U 22125AD  24211.61462691  .00000642  00000-0  58431-4 0  9991,2 53991  53.2184 324.0290 0001435  92.8318 267.2838 15.08834373100814,6917.898,95.438,540.755,538.77,0.0
53991.0,STARLINK-5118,PAYLOAD,2024-07-29 16:20:26,15.08838767,0.0001381,53.2177,323.7296,85.3037,274.8113,8.9339e-05,1.134e-05,0.0,0 STARLINK-5118,1 53991U 22125AD  24211.68086304  .00001134  00000-0  89339-4 0  9999,2 53991  53.2177 323.7296 0001381  85.3037 274.8113 15.08838767100904,6917.884,95.438,540.705,538.794,0.0
53991.0,STARLINK-5118,PAYLOAD,2024-07-30 00:17:22,15.08834314,0.0001451,53.2189,322.2425,84.266,275.8498,-1.7045e-06,-3.15e-06,0.0,0 STARLINK-5118,1 53991U 22125AD  24212.01206917 -.00000315  00000-0 -17045-5 0  9999,2 53991  53.2189 322.2425 0001451  84.2660 275.8498 15.08834314100959,6917.898,95.438,540.767,538.759,0.0
53991.0,STARLINK-5118,PAYLOAD,2024-07-30 16:11:13,15.0884569,0.0001362,53.2179,319.2692,86.5696,273.5452,-5.0462e-06,-3.68e-06,0.0,0 STARLINK-5118,1 53991U 22125AD  24212.67446393 -.00000368  00000-0 -50462-5 0  9993,2 53991  53.2179 319.2692 0001362  86.5696 273.5452 15.08845690101051,6917.863,95.437,540.67,538.786,0.0
53991.0,STARLINK-5118,PAYLOAD,2024-07-31 14:26:36,15.08853217,0.000142,53.2173,315.1057,85.9423,274.1732,0.00026913,3.999e-05,0.0,0 STARLINK-5118,1 53991U 22125AD  24213.60181168  .00003999  00000-0  26913-3 0  9996,2 53991  53.2173 315.1057 0001420  85.9423 274.1732 15.08853217101110,6917.84,95.437,540.687,538.723,0.0
53991.0,STARLINK-5118,PAYLOAD,2024-07-31 16:01:59,15.08856682,0.0001223,53.2167,314.8077,89.6281,270.4852,0.00026524,3.938e-05,0.0,0 STARLINK-5118,1 53991U 22125AD  24213.66804878  .00003938  00000-0  26524-3 0  9993,2 53991  53.2167 314.8077 0001223  89.6281 270.4852 15.08856682101206,6917.829,95.436,540.54,538.848,0.0
53991.0,STARLINK-5118,PAYLOAD,2024-07-31 23:58:56,15.08838405,0.0002093,53.2184,313.3217,76.9033,283.2192,0.00013257,1.822e-05,0.0,0 STARLINK-5118,1 53991U 22125AD  24213.99926729  .00001822  00000-0  13257-3 0  9998,2 53991  53.2184 313.3217 0002093  76.9033 283.2192 15.08838405101252,6917.885,95.438,541.198,538.302,0.0
53991.0,STARLINK-5118,PAYLOAD,2024-08-01 12:42:01,15.08841659,0.0001142,53.2174,310.9415,73.3945,286.7172,6.4788e-05,7.43e-06,0.0,0 STARLINK-5118,1 53991U 22125AD  24214.52918055  .00000743  00000-0  64788-4 0  9998,2 53991  53.2174 310.9415 0001142  73.3945 286.7172 15.08841659101252,6917.875,95.437,540.53,538.95,0.0
53991.0,STARLINK-5118,PAYLOAD,2024-08-01 23:49:42,15.08849895,0.0001186,53.2171,308.8635,80.619,279.4936,0.00013679,1.89e-05,0.0,0 STARLINK-5118,1 53991U 22125AD  24214.99285572  .00001890  00000-0  13679-3 0  9996,2 53991  53.2171 308.8635 0001186  80.6190 279.4936 15.08849895101404,6917.85,95.437,540.536,538.895,0.0
53991.0,STARLINK-5118,PAYLOAD,2024-08-02 12:32:48,15.08832585,0.0001441,53.2167,306.4818,97.6554,262.4602,-0.00022821,-3.917e-05,0.0,0 STARLINK-5118,1 53991U 22125AD  24215.52278612 -.00003917  00000-0 -22821-3 0  9996,2 53991  53.2167 306.4818 0001441  97.6554 262.4602 15.08832585101480,6917.903,95.438,540.765,538.771,0.0
53991.0,STARLINK-5118,PAYLOAD,2024-08-02 15:43:35,15.0884113,0.0001613,53.2193,305.8817,104.9124,255.2047,-0.00011946,-2.189e-05,0.0,0 STARLINK-5118,1 53991U 22125AD  24215.65526678 -.00002189  00000-0 -11946-3 0  9994,2 53991  53.2193 305.8817 0001613 104.9124 255.2047 15.08841130101420,6917.877,95.437,540.858,538.626,0.0
53991.0,STARLINK-5118,PAYLOAD,2024-08-03 12:23:35,15.0884385,0.0001496,53.2185,302.0192,100.9948,259.1212,4.5708e-05,4.4e-06,0.0,0 STARLINK-5118,1 53991U 22125AD  24216.51638257  .00000440  00000-0  45708-4 0  9997,2 53991  53.2185 302.0192 0001496 100.9948 259.1212 15.08843850101636,6917.869,95.437,540.769,538.699,0.0
53991.0,STARLINK-5118,PAYLOAD,2024-08-04 12:14:22,15.08840715,0.0001304,53.2171,297.5603,96.4834,263.6307,0.00013135,1.803e-05,0.0,0 STARLINK-5118,1 53991U 22125AD  24217.50998750  .00001803  00000-0  13135-3 0  9996,2 53991  53.2171 297.5603 0001304  96.4834 263.6307 15.08840715101785,6917.878,95.438,540.645,538.841,0.0
53991.0,STARLINK-5118,PAYLOAD,2024-08-05 12:05:10,15.08838516,0.0001216,53.2165,293.1024,96.2859,263.8272,8.955e-05,1.138e-05,0.0,0 STARLINK-5118,1 53991U 22125AD  24218.50359218  .00001138  00000-0  89550-4 0  9993,2 53991  53.2165 293.1024 0001216  96.2859 263.8272 15.08838516101930,6917.885,95.438,540.591,538.909,0.0
53991.0,STARLINK-5118,PAYLOAD,2024-08-05 21:37:29,15.08836881,0.0001328,53.2155,291.3168,87.7779,272.3365,5.5471e-05,5.95e-06,0.0,0 STARLINK-5118,1 53991U 22125AD  24218.90103477  .00000595  00000-0  55471-4 0  9992,2 53991  53.2155 291.3168 0001328  87.7779 272.3365 15.08836881101917,6917.89,95.438,540.674,538.836,0.0
53991.0,STARLINK-5118,PAYLOAD,2024-08-06 10:20:34,15.0883654,0.0001305,53.2162,288.9389,94.1573,265.9568,5.3333e-05,5.61e-06,0.0,0 STARLINK-5118,1 53991U 22125AD  24219.43095689  .00000561  00000-0  53333-4 0  9994,2 53991  53.2162 288.9389 0001305  94.1573 265.9568 15.08836540101994,6917.891,95.438,540.659,538.853,0.0
53991.0,STARLINK-5118,PAYLOAD,2024-08-07 11:46:44,15.08835322,0.0001502,53.2168,284.1828,94.82,265.2964,0.00027236,4.049e-05,0.0,0 STARLINK-5118,1 53991U 22125AD  24220.49079422  .00004049  00000-0  27236-3 0  9996,2 53991  53.2168 284.1828 0001502  94.8200 265.2964 15.08835322102237,6917.895,95.438,540.799,538.721,0.0
53991.0,STARLINK-5118,PAYLOAD,2024-08-08 11:37:31,15.08851235,0.0001717,53.2175,279.7218,73.8984,286.2197,0.00011838,1.597e-05,0.0,0 STARLINK-5118,1 53991U 22125AD  24221.48438992  .00001597  00000-0  11838-3 0  9993,2 53991  53.2175 279.7218 0001717  73.8984 286.2197 15.08851235102302,6917.846,95.437,540.899,538.523,0.0
53991.0,STARLINK-5118,PAYLOAD,2024-08-09 09:52:55,15.08846114,0.0001551,53.217,275.5543,85.0052,275.1117,3.1313e-05,2.1e-06,0.0,0 STARLINK-5118,1 53991U 22125AD  24222.41175150  .00000210  00000-0  31313-4 0  9993,2 53991  53.2170 275.5543 0001551  85.0052 275.1117 15.08846114102522,6917.862,95.437,540.8,538.654,0.0
53991.0,STARLINK-5118,PAYLOAD,2024-08-09 13:03:41,15.08851805,0.0001596,53.2171,274.9579,84.9825,275.1349,7.898e-05,9.7e-06,0.0,0 STARLINK-5118,1 53991U 22125AD  24222.54422619  .00000970  00000-0  78980-4 0  9996,2 53991  53.2171 274.9579 0001596  84.9825 275.1349 15.08851805102463,6917.844,95.437,540.813,538.605,0.0
53991.0,STARLINK-5118,PAYLOAD,2024-08-10 03:22:10,15.08841001,0.000146,53.2179,272.2847,70.4935,289.6215,-2.849e-05,-7.41e-06,0.0,0 STARLINK-5118,1 53991U 22125AD  24223.14039662 -.00000741  00000-0 -28490-4 0  9994,2 53991  53.2179 272.2847 0001460  70.4935 289.6215 15.08841001102630,6917.877,95.437,540.752,538.732,0.0
53991.0,STARLINK-5118,PAYLOAD,2024-08-10 12:54:28,15.08853479,0.000184,53.2175,270.5001,83.4248,276.6954,7.8516e-05,9.62e-06,0.0,0 STARLINK-5118,1 53991U 22125AD  24223.53782433  .00000962  00000-0  78516-4 0  9995,2 53991  53.2175 270.5001 0001840  83.4248 276.6954 15.08853479102696,6917.839,95.437,540.977,538.431,0.0
53991.0,STARLINK-5118,PAYLOAD,2024-08-11 03:12:57,15.08836322,0.0001656,53.2161,267.824,97.6887,262.4294,-6.5677e-05,-1.333e-05,0.0,0 STARLINK-5118,1 53991U 22125AD  24224.13399534 -.00001333  00000-0 -65677-4 0  9997,2 53991  53.2161 267.8240 0001656  97.6887 262.4294 15.08836322102784,6917.892,95.438,540.902,538.611,0.0
53991.0,STARLINK-5118,PAYLOAD,2024-08-11 09:34:29,15.08837852,0.0001647,53.2159,266.6349,97.6693,262.4486,-2.3462e-05,-6.61e-06,0.0,0 STARLINK-5118,1 53991U 22125AD  24224.39895544 -.00000661  00000-0 -23462-4 0  9996,2 53991  53.2159 266.6349 0001647  97.6693 262.4486 15.08837852102741,6917.887,95.438,540.891,538.613,0.0
53991.0,STARLINK-5118,PAYLOAD,2024-08-12 03:03:44,15.08845649,0.0001646,53.2168,263.3642,109.3682,250.7488,0.00015638,2.202e-05,0.0,0 STARLINK-5118,1 53991U 22125AD  24225.12759338  .00002202  00000-0  15638-3 0  9994,2 53991  53.2168 263.3642 0001646 109.3682 250.7488 15.08845649102935,6917.863,95.437,540.867,538.589,0.0
53991.0,STARLINK-5118,PAYLOAD,2024-08-12 12:36:02,15.08869266,0.0001345,53.2159,261.578,89.3148,270.7998,0.00065485,0.00010158,0.0,0 STARLINK-5118,1 53991U 22125AD  24225.52502318  .00010158  00000-0  65485-3 0  9996,2 53991  53.2159 261.5780 0001345  89.3148 270.7998 15.08869266102993,6917.791,95.436,540.586,538.725,0.0
53991.0,STARLINK-5118,PAYLOAD,2024-08-12 18:57:35,15.08856834,0.0001914,53.2157,260.3869,74.5644,285.5559,0.00043989,6.723e-05,0.0,0 STARLINK-5118,1 53991U 22125AD  24225.78998926  .00006723  00000-0  43989-3 0  9996,2 53991  53.2157 260.3869 0001914  74.5644 285.5559 15.08856834103035,6917.829,95.436,541.018,538.37,0.0
